{
  "type": "FeatureCollection",
  "features": [
    {
      "type": "Feature",
      "properties": {
        "norad_id": 31282,
        "name": "FENGYUN 1C DEB",
        "group": "fengyun-1c-debris",
        "lat": 17.748892475415044,
        "lon": -104.92253924161365,
        "alt_km": 723.2765603986109,
        "timestamp": "2025-12-07T05:38:10.185625+00:00",
        "meta_object_name": "FENGYUN 1C DEB",
        "meta_object_id": "1999-025BNQ",
        "meta_epoch": "2025-12-05T13:37:37.870752",
        "meta_mean_motion": 14.43445277,
        "meta_eccentricity": 0.01272888,
        "meta_inclination": 99.216,
        "meta_ra_of_asc_node": 256.2532,
        "meta_arg_of_pericenter": 307.7813,
        "meta_mean_anomaly": 51.1901,
        "meta_ephemeris_type": 0,
        "meta_classification_type": "U",
        "meta_norad_cat_id": 31282,
        "meta_element_set_no": 999,
        "meta_rev_at_epoch": 97017,
        "meta_bstar": 0.00052130955,
        "meta_mean_motion_dot": 1.886e-05,
        "meta_mean_motion_ddot": 0,
        "tle_line1": "1 31282U 99025BNQ 25339.56779943  .00001886  00000+0  52131-3 0  9990",
        "tle_line2": "2 31282  99.2160 256.2532 0127288 307.7813  51.1901 14.43445277970179"
      },
      "geometry": {
        "type": "Point",
        "coordinates": [
          -104.92253924161365,
          17.748892475415044
        ]
      }
    },
    {
      "type": "Feature",
      "properties": {
        "norad_id": 31284,
        "name": "FENGYUN 1C DEB",
        "group": "fengyun-1c-debris",
        "lat": 56.39760326107242,
        "lon": -89.73883612706955,
        "alt_km": 825.8526756329611,
        "timestamp": "2025-12-07T05:38:10.185635+00:00",
        "meta_object_name": "FENGYUN 1C DEB",
        "meta_object_id": "1999-025BNS",
        "meta_epoch": "2025-12-05T11:50:22.488576",
        "meta_mean_motion": 13.97878471,
        "meta_eccentricity": 0.01435232,
        "meta_inclination": 99.723,
        "meta_ra_of_asc_node": 73.4643,
        "meta_arg_of_pericenter": 78.247,
        "meta_mean_anomaly": 283.4752,
        "meta_ephemeris_type": 0,
        "meta_classification_type": "U",
        "meta_norad_cat_id": 31284,
        "meta_element_set_no": 999,
        "meta_rev_at_epoch": 95061,
        "meta_bstar": 0.001224281,
        "meta_mean_motion_dot": 1.845e-05,
        "meta_mean_motion_ddot": 0,
        "tle_line1": "1 31284U 99025BNS 25339.49331584  .00001845  00000+0  12243-2 0  9993",
        "tle_line2": "2 31284  99.7230  73.4643 0143523  78.2470 283.4752 13.97878471950610"
      },
      "geometry": {
        "type": "Point",
        "coordinates": [
          -89.73883612706955,
          56.39760326107242
        ]
      }
    },
    {
      "type": "Feature",
      "properties": {
        "norad_id": 31285,
        "name": "FENGYUN 1C DEB",
        "group": "fengyun-1c-debris",
        "lat": -81.08318002916333,
        "lon": 34.59549354527579,
        "alt_km": 760.0263657571677,
        "timestamp": "2025-12-07T05:38:10.185645+00:00",
        "meta_object_name": "FENGYUN 1C DEB",
        "meta_object_id": "1999-025BNT",
        "meta_epoch": "2025-12-06T10:33:54.493056",
        "meta_mean_motion": 14.26029944,
        "meta_eccentricity": 0.01993578,
        "meta_inclination": 98.5186,
        "meta_ra_of_asc_node": 321.0236,
        "meta_arg_of_pericenter": 205.3237,
        "meta_mean_anomaly": 308.1249,
        "meta_ephemeris_type": 0,
        "meta_classification_type": "U",
        "meta_norad_cat_id": 31285,
        "meta_element_set_no": 999,
        "meta_rev_at_epoch": 97209,
        "meta_bstar": 0.00034407509,
        "meta_mean_motion_dot": 9.65e-06,
        "meta_mean_motion_ddot": 0,
        "tle_line1": "1 31285U 99025BNT 25340.44021404  .00000965  00000+0  34408-3 0  9998",
        "tle_line2": "2 31285  98.5186 321.0236 0199357 205.3237 308.1249 14.26029944972096"
      },
      "geometry": {
        "type": "Point",
        "coordinates": [
          34.59549354527579,
          -81.08318002916333
        ]
      }
    },
    {
      "type": "Feature",
      "properties": {
        "norad_id": 31286,
        "name": "FENGYUN 1C DEB",
        "group": "fengyun-1c-debris",
        "lat": 75.06874642981593,
        "lon": 96.62164937211675,
        "alt_km": 865.8762009556112,
        "timestamp": "2025-12-07T05:38:10.185674+00:00",
        "meta_object_name": "FENGYUN 1C DEB",
        "meta_object_id": "1999-025BNU",
        "meta_epoch": "2025-12-06T10:35:48.674112",
        "meta_mean_motion": 14.22628912,
        "meta_eccentricity": 0.00812348,
        "meta_inclination": 100.8586,
        "meta_ra_of_asc_node": 229.6086,
        "meta_arg_of_pericenter": 296.3174,
        "meta_mean_anomaly": 62.9669,
        "meta_ephemeris_type": 0,
        "meta_classification_type": "U",
        "meta_norad_cat_id": 31286,
        "meta_element_set_no": 999,
        "meta_rev_at_epoch": 63930,
        "meta_bstar": 0.0053385325,
        "meta_mean_motion_dot": 0.0001231,
        "meta_mean_motion_ddot": 0,
        "tle_line1": "1 31286U 99025BNU 25340.44153558  .00012310  00000+0  53385-2 0  9996",
        "tle_line2": "2 31286 100.8586 229.6086 0081234 296.3174  62.9669 14.22628912639309"
      },
      "geometry": {
        "type": "Point",
        "coordinates": [
          96.62164937211675,
          75.06874642981593
        ]
      }
    },
    {
      "type": "Feature",
      "properties": {
        "norad_id": 31287,
        "name": "FENGYUN 1C DEB",
        "group": "fengyun-1c-debris",
        "lat": 45.78373948407811,
        "lon": 26.93429665787575,
        "alt_km": 777.1747318290472,
        "timestamp": "2025-12-07T05:38:10.185685+00:00",
        "meta_object_name": "FENGYUN 1C DEB",
        "meta_object_id": "1999-025BNV",
        "meta_epoch": "2025-12-01T09:50:16.615392",
        "meta_mean_motion": 14.27891237,
        "meta_eccentricity": 0.00285984,
        "meta_inclination": 99.4087,
        "meta_ra_of_asc_node": 30.4771,
        "meta_arg_of_pericenter": 95.3474,
        "meta_mean_anomaly": 265.0968,
        "meta_ephemeris_type": 0,
        "meta_classification_type": "U",
        "meta_norad_cat_id": 31287,
        "meta_element_set_no": 999,
        "meta_rev_at_epoch": 96524,
        "meta_bstar": 0.0017630055,
        "meta_mean_motion_dot": 4.336e-05,
        "meta_mean_motion_ddot": 0,
        "tle_line1": "1 31287U 99025BNV 25335.40991453  .00004336  00000+0  17630-2 0  9993",
        "tle_line2": "2 31287  99.4087  30.4771 0028598  95.3474 265.0968 14.27891237965242"
      },
      "geometry": {
        "type": "Point",
        "coordinates": [
          26.93429665787575,
          45.78373948407811
        ]
      }
    },
    {
      "type": "Feature",
      "properties": {
        "norad_id": 31288,
        "name": "FENGYUN 1C DEB",
        "group": "fengyun-1c-debris",
        "lat": -61.49928601726426,
        "lon": 155.12364405850687,
        "alt_km": 575.2985765244184,
        "timestamp": "2025-12-07T05:38:10.185695+00:00",
        "meta_object_name": "FENGYUN 1C DEB",
        "meta_object_id": "1999-025BNW",
        "meta_epoch": "2025-12-05T22:26:56.791392",
        "meta_mean_motion": 14.94416378,
        "meta_eccentricity": 0.0022568,
        "meta_inclination": 98.7473,
        "meta_ra_of_asc_node": 137.2033,
        "meta_arg_of_pericenter": 313.7144,
        "meta_mean_anomaly": 196.3511,
        "meta_ephemeris_type": 0,
        "meta_classification_type": "U",
        "meta_norad_cat_id": 31288,
        "meta_element_set_no": 999,
        "meta_rev_at_epoch": 97455,
        "meta_bstar": 0.0079928158,
        "meta_mean_motion_dot": 0.0008751,
        "meta_mean_motion_ddot": 0,
        "tle_line1": "1 31288U 99025BNW 25339.93537953  .00087510  00000+0  79928-2 0  9990",
        "tle_line2": "2 31288  98.7473 137.2033 0022568 313.7144 196.3511 14.94416378974550"
      },
      "geometry": {
        "type": "Point",
        "coordinates": [
          155.12364405850687,
          -61.49928601726426
        ]
      }
    },
    {
      "type": "Feature",
      "properties": {
        "norad_id": 31293,
        "name": "FENGYUN 1C DEB",
        "group": "fengyun-1c-debris",
        "lat": 51.942595511818155,
        "lon": -21.744885337514685,
        "alt_km": 862.8331692700922,
        "timestamp": "2025-12-07T05:38:10.185705+00:00",
        "meta_object_name": "FENGYUN 1C DEB",
        "meta_object_id": "1999-025BPB",
        "meta_epoch": "2025-12-05T18:08:31.003296",
        "meta_mean_motion": 14.30807095,
        "meta_eccentricity": 0.01253429,
        "meta_inclination": 98.4231,
        "meta_ra_of_asc_node": 347.7316,
        "meta_arg_of_pericenter": 265.7453,
        "meta_mean_anomaly": 92.9399,
        "meta_ephemeris_type": 0,
        "meta_classification_type": "U",
        "meta_norad_cat_id": 31293,
        "meta_element_set_no": 999,
        "meta_rev_at_epoch": 65144,
        "meta_bstar": 0.00014981207,
        "meta_mean_motion_dot": 3.83e-06,
        "meta_mean_motion_ddot": 0,
        "tle_line1": "1 31293U 99025BPB 25339.75591439  .00000383  00000+0  14981-3 0  9997",
        "tle_line2": "2 31293  98.4231 347.7316 0125342 265.7453  92.9399 14.30807095651445"
      },
      "geometry": {
        "type": "Point",
        "coordinates": [
          -21.744885337514685,
          51.942595511818155
        ]
      }
    }
  ]
}